NORAD_CAT_ID,OBJECT_NAME,OBJECT_TYPE,EPOCH,MEAN_MOTION,ECCENTRICITY,INCLINATION,RA_OF_ASC_NODE,ARG_OF_PERICENTER,MEAN_ANOMALY,BSTAR,MEAN_MOTION_DOT,MEAN_MOTION_DDOT,TLE_LINE0,TLE_LINE1,TLE_LINE2,SEMIMAJOR_AXIS,PERIOD,APOGEE,PERIGEE,DECAYED
53837.0,STARLINK-4776,PAYLOAD,2022-11-07 22:00:00,15.49770207,0.0001565999999999,53.2174,13.0553,47.3392,124.8932,-0.015625,-0.00810016,0.0,0 STARLINK-4776,1 53837U 22114V   22311.91667824 -.00810016  00000-0 -15625-1 0  9996,2 53837  53.2174  13.0553 0001566  47.3392 124.8932 15.49770207  1308,6795.535,92.917,418.464,416.336,0.0
53837.0,STARLINK-4776,PAYLOAD,2022-11-08 00:00:02,15.49542394,0.0001484,53.2174,12.6569,37.5429,240.0016,-0.015206,-0.00784142,0.0,0 STARLINK-4776,1 53837U 22114V   22312.00002315 -.00784142  00000-0 -15206-1 0  9990,2 53837  53.2174  12.6569 0001484  37.5429 240.0016 15.49542394  8429,6796.201,92.931,419.074,417.057,0.0
53837.0,STARLINK-4776,PAYLOAD,2022-11-08 10:00:01,15.48780183,0.0001724,53.2174,10.668,36.0524,46.5919,-0.022937,-0.01145869,0.0,0 STARLINK-4776,1 53837U 22114V   22312.41668981 -.01145869  00000-0 -22937-1 0  9999,2 53837  53.2174  10.6680 0001724  36.0524  46.5919 15.48780183  8495,6798.43,92.976,421.467,419.12300000000016,0.0
53837.0,STARLINK-4776,PAYLOAD,2022-11-08 14:00:01,15.48400551,0.0001414,53.2173,9.8742,49.4542,242.7776,-0.024072,-0.01182968,0.0,0 STARLINK-4776,1 53837U 22114V   22312.58334491 -.01182968  00000-0 -24072-1 0  9996,2 53837  53.2173   9.8742 0001414  49.4542 242.7776 15.48400551  1309,6799.542,92.999,422.36800000000005,420.445,0.0
53837.0,STARLINK-4776,PAYLOAD,2022-11-08 22:00:00,15.47558518,0.0001508,53.2173,8.2837,35.5306,315.3145,-0.023911,-0.01144369,0.0,0 STARLINK-4776,1 53837U 22114V   22312.91667824 -.01144369  00000-0 -23911-1 0  9996,2 53837  53.2173   8.2837 0001508  35.5306 315.3145 15.47558518  1308,6802.0080000000025,93.05,424.898,422.847,0.0
53837.0,STARLINK-4776,PAYLOAD,2022-11-09 06:00:00,15.46676898,0.0001518,53.2169,6.6972,42.4739,6.0259,-0.022505,-0.01038021,0.0,0 STARLINK-4776,1 53837U 22114V   22313.25001157 -.01038021  00000-0 -22505-1 0  9990,2 53837  53.2169   6.6972 0001518  42.4739   6.0259 15.46676898  8626,6804.592,93.103,427.49,425.424,0.0
53837.0,STARLINK-4776,PAYLOAD,2022-11-09 14:00:01,15.45888192,0.0001724,53.2171,5.1148,37.9857,67.1414,-0.023869,-0.01068193,0.0,0 STARLINK-4776,1 53837U 22114V   22313.58334491 -.01068193  00000-0 -23869-1 0  9993,2 53837  53.2171   5.1148 0001724  37.9857  67.1414 15.45888192  1307,6806.906999999997,93.15,429.945,427.598,0.0
53837.0,STARLINK-4776,PAYLOAD,2022-11-09 22:00:01,15.45115128,0.0001661,53.2174,3.5298,42.6731,118.1652,-0.025911,-0.01139733,0.0,0 STARLINK-4776,1 53837U 22114V   22313.91668981 -.01139733  00000-0 -25911-1 0  9993,2 53837  53.2174   3.5298 0001661  42.6731 118.1652 15.45115128  8728,6809.177,93.197,432.173,429.911,0.0
53837.0,STARLINK-4776,PAYLOAD,2022-11-10 14:00:01,15.43547712,0.0001555,53.2172,0.3728,38.2591,230.8784,-0.029416,-0.01218505,0.0,0 STARLINK-4776,1 53837U 22114V   22314.58334491 -.01218505  00000-0 -29416-1 0  9992,2 53837  53.2172   0.3728 0001555  38.2591 230.8784 15.43547712  1307,6813.786,93.292,436.71,434.591,0.0
53837.0,STARLINK-4776,PAYLOAD,2022-11-10 22:00:00,15.4267425,0.0001551999999999,53.2175,358.7934,36.5372,285.3641,-0.028176,-0.01140264,0.0,0 STARLINK-4776,1 53837U 22114V   22314.91667824 -.01140264  00000-0 -28176-1 0  9996,2 53837  53.2175 358.7934 0001552  36.5372 285.3641 15.42674250  8877,6816.357,93.344,439.28,437.165,0.0
53837.0,STARLINK-4776,PAYLOAD,2022-11-11 14:00:01,15.41049307,0.0001836,53.2173,355.6477,32.2192,32.2082,-0.029827,-0.01142725,0.0,0 STARLINK-4776,1 53837U 22114V   22315.58334491 -.01142725  00000-0 -29827-1 0  9999,2 53837  53.2173 355.6477 0001836  32.2192  32.2082 15.41049307  1308,6821.148,93.443,444.266,441.761,0.0
53837.0,STARLINK-4776,PAYLOAD,2022-11-11 16:00:01,15.40844353,0.0001871,53.2172,355.2539,36.1001,130.9341,-0.029985,-0.01141096,0.0,0 STARLINK-4776,1 53837U 22114V   22315.66668981 -.01141096  00000-0 -29985-1 0  9997,2 53837  53.2172 355.2539 0001871  36.1001 130.9341 15.40844353  8992,6821.753000000002,93.455,444.894,442.342,0.0
53837.0,STARLINK-4776,PAYLOAD,2022-11-11 22:00:00,15.40271325,0.00039,53.2174,354.0754,281.2339,192.9726,-0.031907,-0.01187487,0.0,0 STARLINK-4776,1 53837U 22114V   22315.91667824 -.01187487  00000-0 -31907-1 0  9991,2 53837  53.2174 354.0754 0003900 281.2339 192.9726 15.40271325  9036,6823.445,93.49,447.971,442.649,0.0
53837.0,STARLINK-4776,PAYLOAD,2022-11-12 14:00:01,15.38632434,0.0001654,53.217,350.9407,48.9025,161.9722,-0.03331,-0.01174686,0.0,0 STARLINK-4776,1 53837U 22114V   22316.58334491 -.01174686  00000-0 -33310-1 0  9993,2 53837  53.2170 350.9407 0001654  48.9025 161.9722 15.38632434  1309,6828.2890000000025,93.59,451.284,449.025,0.0
53837.0,STARLINK-4776,PAYLOAD,2022-11-12 22:00:00,15.37795415,0.000146,53.2173,349.3738,44.2856,213.4658,-0.033245,-0.01143489,0.0,0 STARLINK-4776,1 53837U 22114V   22316.91667824 -.01143489  00000-0 -33245-1 0  9993,2 53837  53.2173 349.3738 0001460  44.2856 213.4658 15.37795415  1306,6830.767,93.641,453.629,451.635,0.0
53837.0,STARLINK-4776,PAYLOAD,2022-11-13 06:00:02,15.36986234,0.0001581,53.2172,347.8107,42.6586,261.041,-0.034348,-0.01150043,0.0,0 STARLINK-4776,1 53837U 22114V   22317.25002315 -.01150043  00000-0 -34348-1 0  9998,2 53837  53.2172 347.8107 0001581  42.6586 261.0410 15.36986234  9239,6833.1640000000025,93.69,456.11,453.949,0.0
53837.0,STARLINK-4776,PAYLOAD,2022-11-13 14:00:01,15.36161765,0.0001598,53.2167,346.2509,37.6232,310.9244,-0.034741,-0.0113398,0.0,0 STARLINK-4776,1 53837U 22114V   22317.58334491 -.01133980  00000-0 -34741-1 0  9995,2 53837  53.2167 346.2509 0001598  37.6232 310.9244 15.36161765  1305,6835.609,93.74,458.566,456.382,0.0
53837.0,STARLINK-4776,PAYLOAD,2022-11-13 22:00:00,15.353590900000002,0.0001705,53.2171,344.6896,33.6611,358.8135,-0.036215,-0.01150321,0.0,0 STARLINK-4776,1 53837U 22114V   22317.91667824 -.01150321  00000-0 -36215-1 0  9997,2 53837  53.2171 344.6896 0001705  33.6611 358.8135 15.35359090  1307,6837.991,93.789,461.022,458.69,0.0
53837.0,STARLINK-4776,PAYLOAD,2022-11-14 14:00:01,15.33722434,0.0001963,53.2171,341.5776,32.232,85.1736,-0.03766,-0.01136473,0.0,0 STARLINK-4776,1 53837U 22114V   22318.58334491 -.01136473  00000-0 -37660-1 0  9999,2 53837  53.2171 341.5776 0001963  32.2320  85.1736 15.33722434  9442,6842.855,93.889,466.06300000000016,463.377,0.0
53837.0,STARLINK-4776,PAYLOAD,2022-11-14 22:00:00,15.32908402,0.0001859,53.2173,340.0223,36.9847,121.4192,-0.038652,-0.01136572,0.0,0 STARLINK-4776,1 53837U 22114V   22318.91667824 -.01136572  00000-0 -38652-1 0  9997,2 53837  53.2173 340.0223 0001859  36.9847 121.4192 15.32908402  1301,6845.276999999999,93.939,468.415,465.87,0.0
53837.0,STARLINK-4776,PAYLOAD,2022-11-15 14:00:01,15.31292882,0.0001658,53.2166,336.9232,46.5336,190.9233,-0.041294,-0.01152353,0.0,0 STARLINK-4776,1 53837U 22114V   22319.58334491 -.01152353  00000-0 -41294-1 0  9993,2 53837  53.2166 336.9232 0001658  46.5336 190.9233 15.31292882  1308,6850.090999999999,94.038,473.092,470.82,0.0
53837.0,STARLINK-4776,PAYLOAD,2022-11-15 18:00:02,15.30875305,0.0001606,53.2174,336.1472,41.1722,35.5091,-0.041283,-0.01138377,0.0,0 STARLINK-4776,1 53837U 22114V   22319.75002315 -.01138377  00000-0 -41283-1 0  9997,2 53837  53.2174 336.1472 0001606  41.1722  35.5091 15.30875305  9623,6851.3359999999975,94.064,474.302,472.101,0.0
53837.0,STARLINK-4776,PAYLOAD,2022-11-15 22:00:00,15.30466213,0.0001472,53.2173,335.3728,50.539,224.9891,-0.041655,-0.01134381,0.0,0 STARLINK-4776,1 53837U 22114V   22319.91667824 -.01134381  00000-0 -41655-1 0  9991,2 53837  53.2173 335.3728 0001472  50.5390 224.9891 15.30466213  1306,6852.557,94.089,475.431,473.414,0.0
53837.0,STARLINK-4776,PAYLOAD,2022-11-16 14:00:01,15.28841842,0.0001505,53.2172,332.2845,41.33600000000001,307.4468,-0.043995,-0.01138735,0.0,0 STARLINK-4776,1 53837U 22114V   22320.58335648 -.01138735  00000-0 -43995-1 0  9998,2 53837  53.2172 332.2845 0001505  41.3360 307.4468 15.28841842  9759,6857.41,94.189,480.307,478.24300000000005,0.0
53837.0,STARLINK-4776,PAYLOAD,2022-11-16 22:00:08,15.28024166,0.000146,53.2172,330.7403,43.2782,341.0194,-0.044894,-0.01133555,0.0,0 STARLINK-4776,1 53837U 22114V   22320.91675926 -.01133555  00000-0 -44894-1 0  9995,2 53837  53.2172 330.7403 0001460  43.2782 341.0194 15.28024166  1306,6859.856,94.239,482.723,480.72,0.0
53837.0,STARLINK-4776,PAYLOAD,2022-11-17 14:00:01,15.26418912,0.0001779,53.2166,327.6647,36.1516,55.0135,-0.048451,-0.01177806,0.0,0 STARLINK-4776,1 53837U 22114V   22321.58334491 -.01177806  00000-0 -48451-1 0  9998,2 53837  53.2166 327.6647 0001779  36.1516  55.0135 15.26418912  9908,6864.665,94.338,487.751,485.309,0.0
53837.0,STARLINK-4776,PAYLOAD,2022-11-17 22:00:00,15.25586122,0.000182,53.2172,326.1268,36.8547,86.5175,-0.048563,-0.01153091,0.0,0 STARLINK-4776,1 53837U 22114V   22321.91667824 -.01153091  00000-0 -48563-1 0  9998,2 53837  53.2172 326.1268 0001820  36.8547  86.5175 15.25586122  1303,6867.163000000001,94.39,490.278,487.778,0.0
53837.0,STARLINK-4776,PAYLOAD,2022-11-18 14:00:01,15.23977118,0.0001793,53.2167,323.0612,41.8015,143.0196,-0.052146,-0.0117751,0.0,0 STARLINK-4776,1 53837U 22114V   22322.58334491 -.01177510  00000-0 -52146-1 0  9997,2 53837  53.2167 323.0612 0001793  41.8015 143.0196 15.23977118  1300,6871.996,94.49,495.093,492.629,0.0
53837.0,STARLINK-4776,PAYLOAD,2022-11-18 22:00:00,15.2314607,0.0001751,53.2171,321.529,41.4496,172.644,-0.052338,-0.01154695,0.0,0 STARLINK-4776,1 53837U 22114V   22322.91667824 -.01154695  00000-0 -52338-1 0  9995,2 53837  53.2171 321.5290 0001751  41.4496 172.6440 15.23146070  1308,6874.495,94.541,497.564,495.156,0.0
